ONEWEB-0055             
1 45443U 20020V   21315.64974934 -.00002406  00000-0 -68239-2 0  9996
2 45443  87.8921 354.7831 0002384  95.0786 265.0614 13.11430325 82625
ONEWEB-0093             
1 45444U 20020W   21315.54876707  .00000101  00000-0  24936-3 0  9990
2 45444  87.8918 354.8456 0002124  94.7195 265.4175 13.11415626 82665
ONEWEB-0029             
1 45445U 20020X   21315.64753534  .00000451  00000-0  12371-2 0  9991
2 45445  87.8918 354.8074 0002056 107.3989 252.7363 13.11421540 82668
ONEWEB-0068             
1 45446U 20020Y   21315.69348392 -.00000280  00000-0 -82662-3 0  9992
2 45446  87.8917 354.8154 0002315  96.3919 263.7473 13.11414813 82619
ONEWEB-0046             
1 45447U 20020Z   21315.69010611 -.00000377  00000-0 -10996-2 0  9990
2 45447  87.8917 354.8226 0001730  99.7336 260.3988 13.11412990 82629
ONEWEB-0063             
1 45448U 20020AA  21315.64304003  .00000481  00000-0  13199-2 0  9999
2 45448  87.8907 354.8295 0001556 102.1064 258.0239 13.11420114 82695
ONEWEB-0019             
1 45449U 20020AB  21315.54201172 -.00000537  00000-0 -15496-2 0  9998
2 45449  87.8923 354.8294 0001772  92.8728 267.2603 13.11419409 82529
ONEWEB-0094             
1 45450U 20020AC  21315.59729352  .00000015  00000-0  55001-5 0  9998
2 45450  87.9090 339.5937 0001988  90.0817 270.0542 13.17646847 85250
ONEWEB-0087             
1 45451U 20020AD  21315.65200287  .00000361  00000-0  98222-3 0  9991
2 45451  87.8922 354.8381 0002244 106.6121 253.5254 13.11411394 82596
ONEWEB-0082             
1 45452U 20020AE  21315.57792721 -.00001033  00000-0 -29509-2 0  9992
2 45452  87.8913 354.8035 0002471  99.6392 260.5015 13.11417718 82663
ONEWEB-0050             
1 45453U 20020AF  21315.51948876  .00000635  00000-0  55521-4 0  9991
2 45453  87.5381 309.4258 0023362 286.1219  73.7440 14.94799560 89715
ONEWEB-0034             
1 45454U 20020AG  21315.67215933 -.00000485  00000-0 -14052-2 0  9997
2 45454  87.8912 354.8083 0001999 103.0597 257.0754 13.11412823 82605
ONEWEB-0060             
1 45455U 20020AH  21315.52852719 -.00000545  00000-0 -15741-2 0  9994
2 45455  87.8916 354.8384 0001820 100.5681 259.5652 13.11412002 82538
ONEWEB-0086             
1 45456U 20020AJ  21315.62284090  .00000005  00000-0 -22857-4 0  9995
2 45456  87.8917 354.8151 0002118  98.4441 261.6927 13.11422335 82609
ONEWEB-0088             
1 45457U 20020AK  21315.67443824 -.00000488  00000-0 -14124-2 0  9995
2 45457  87.8909 354.8275 0001810 105.3630 254.7698 13.11412699 82558
ONEWEB-0102             
1 47258U 20100A   21315.54427624  .00000682  00000-0  18594-2 0  9990
2 47258  87.8844 324.4226 0002082  86.9492 273.1874 13.12440927 44542
ONEWEB-0109             
1 47259U 20100B   21315.55582743  .00000489  00000-0  13231-2 0  9994
2 47259  87.8905 324.2822 0001971  85.3423 274.7930 13.12442347 44373
ONEWEB-0110             
1 47260U 20100C   21315.57894188 -.00000088  00000-0 -28022-3 0  9999
2 47260  87.8867 324.3556 0002245  84.8298 275.3087 13.12437402 44541
ONEWEB-0111             
1 47261U 20100D   21315.53272100 -.00000119  00000-0 -36724-3 0  9993
2 47261  87.8868 324.3918 0002046  87.5782 272.5581 13.12442913 44374
ONEWEB-0114             
1 47262U 20100E   21315.71755669  .00000747  00000-0  20400-2 0  9998
2 47262  87.8908 324.2147 0001804  74.2697 285.8630 13.12440407 44358
ONEWEB-0117             
1 47263U 20100F   21315.55813824  .00000508  00000-0  13756-2 0  9990
2 47263  87.8820 324.3216 0002000  86.0553 274.0804 13.12440685 44341
ONEWEB-0118             
1 47264U 20100G   21315.58817922 -.00000326  00000-0 -94270-3 0  9998
2 47264  87.8852 324.3582 0001072  74.7858 285.3389 13.12439968 44540
ONEWEB-0119             
1 47265U 20100H   21315.53965865  .00000083  00000-0  19414-3 0  9999
2 47265  87.8843 324.4309 0001986  86.1919 273.9436 13.12442526 44515
ONEWEB-0120             
1 47266U 20100J   21315.56970062  .00000235  00000-0  61693-3 0  9993
2 47266  87.8917 324.3589 0001912  81.1914 278.9431 13.12441855 44543
ONEWEB-0121             
1 47267U 20100K   21315.55351855  .00000471  00000-0  12745-2 0  9991
2 47267  87.8925 324.4192 0002118  93.3138 266.8233 13.12444889 44452
ONEWEB-0122             
1 47268U 20100L   21315.54658304  .00000381  00000-0  10224-2 0  9990
2 47268  87.8835 324.3230 0001939  86.4288 273.7062 13.12440186 44367
ONEWEB-0123             
1 47269U 20100M   21315.54197980  .00000115  00000-0  28555-3 0  9991
2 47269  87.8859 324.4021 0001827  86.8140 273.3197 13.12445315 44500
ONEWEB-0124             
1 47270U 20100N   21315.52811297 -.00000246  00000-0 -71869-3 0  9998
2 47270  87.8828 324.3355 0002255 100.2135 259.9248 13.12434636 44385
ONEWEB-0125             
1 47271U 20100P   21315.73602689 -.00000235  00000-0 -68857-3 0  9996
2 47271  87.8902 324.3812 0001811  78.1350 281.9981 13.12443570 44472
ONEWEB-0126             
1 47272U 20100Q   21315.53155973 -.00000207  00000-0 -61152-3 0  9994
2 47272  87.8859 324.4505 0002012  81.8230 278.3127 13.12444642 44514
ONEWEB-0127             
1 47273U 20100R   21315.72450259  .00000245  00000-0  64505-3 0  9996
2 47273  87.8836 324.3069 0001748  87.8117 272.3212 13.12437075 44565
ONEWEB-0128             
1 47274U 20100S   21315.74526366 -.00000363  00000-0 -10451-2 0  9995
2 47274  87.8857 324.3182 0002331  90.5748 269.5647 13.12444780 44588
ONEWEB-0129             
1 47275U 20100T   21315.57432572  .00000173  00000-0  44608-3 0  9991
2 47275  87.8868 324.2899 0002073  36.7167 323.4103 13.12441799 44499
ONEWEB-0130             
1 47276U 20100U   21315.75219729 -.00000440  00000-0 -12573-2 0  9993
2 47276  87.8891 324.3372 0002076  91.3785 268.7582 13.12444506 44489
ONEWEB-0131             
1 47277U 20100V   21315.74988644 -.00000417  00000-0 -11944-2 0  9997
2 47277  87.8891 324.2855 0002033  94.4877 265.6484 13.12444842 44529
ONEWEB-0132             
1 47278U 20100W   21315.55120856  .00000471  00000-0  12731-2 0  9993
2 47278  87.8852 324.4325 0001821  79.6434 280.4899 13.12441551 44393
ONEWEB-0133             
1 47279U 20100X   21315.56739005  .00000325  00000-0  86714-3 0  9998
2 47279  87.8876 324.3241 0001895  86.8200 273.3146 13.12442519 44557
ONEWEB-0134             
1 47280U 20100Y   21315.53505430 -.00000004  00000-0 -47809-4 0  9999
2 47280  87.8844 324.3571 0002211  88.3203 271.8178 13.12447080 44526
ONEWEB-0135             
1 47281U 20100Z   21315.58123792 -.00000155  00000-0 -46548-3 0  9997
2 47281  87.8849 324.3369 0001939  83.9938 276.1411 13.12444050 44554
ONEWEB-0136             
1 47282U 20100AA  21315.75450825 -.00000390  00000-0 -11185-2 0  9996
2 47282  87.8873 324.2684 0002735  76.4622 283.6811 13.12441620 44505
ONEWEB-0137             
1 47283U 20100AB  21315.56276121  .00000456  00000-0  12311-2 0  9994
2 47283  87.8832 324.4092 0001688  80.7681 279.3639 13.12442187 44380
ONEWEB-0138             
1 47284U 20100AC  21315.53732130 -.00000028  00000-0 -11364-3 0  9994
2 47284  87.8838 324.4030 0002050  81.5550 278.5811 13.12446981 44465
ONEWEB-0139             
1 47285U 20100AD  21315.58585574 -.00000305  00000-0 -88436-3 0  9990
2 47285  87.8889 324.4333 0002210  84.7452 275.3929 13.12441917 44540
ONEWEB-0140             
1 47286U 20100AE  21315.53041547 -.00000145  00000-0 -43778-3 0  9995
2 47286  87.8867 324.4035 0002102  85.7686 274.3683 13.12445603 44504
ONEWEB-0141             
1 47287U 20100AF  21315.59857163 -.00000415  00000-0 -11878-2 0  9996
2 47287  87.8841 324.3831 0002008  87.8222 272.3136 13.12443608 44496
ONEWEB-0142             
1 47288U 20100AG  21315.54312260  .00000202  00000-0  52656-3 0  9998
2 47288  87.8868 324.4765 0001823  75.9356 284.1975 13.12442660 44481
ONEWEB-0143             
1 47289U 20100AH  21315.72911365  .00000079  00000-0  18387-3 0  9995
2 47289  87.8888 324.3171 0001908  88.2295 271.9052 13.12444322 44484
ONEWEB-0144             
1 47290U 20100AJ  21315.54889513  .00000430  00000-0  11605-2 0  9992
2 47290  87.8907 324.2758 0002134  88.7078 271.4295 13.12443499 44381
ONEWEB-0145             
1 47291U 20100AK  21315.74756372 -.00000378  00000-0 -10863-2 0  9999
2 47291  87.8864 324.3389 0001858  85.4461 274.6879 13.12441816 44606
ONEWEB-0146             
1 47292U 20100AL  21315.74295344 -.00000348  00000-0 -10031-2 0  9991
2 47292  87.8851 324.3677 0002214 117.4850 242.6504 13.12444023 44511
ONEWEB-0147             
1 47293U 20100AM  21315.56044018  .00000446  00000-0  12050-2 0  9992
2 47293  87.8868 324.3980 0002518  74.0115 286.1291 13.12445050 44388
ONEWEB-0115             
1 48042U 21025A   21315.45028760 -.00000008  00000-0 -57310-4 0  9992
2 48042  87.8857 293.7742 0002252  91.4491 268.6896 13.13465657 33222
ONEWEB-0152             
1 48043U 21025B   21315.69001198  .00000209  00000-0  53640-3 0  9997
2 48043  87.8873 293.7034 0002223  84.1545 275.9838 13.13475318 33224
ONEWEB-0153             
1 48044U 21025C   21315.43908238 -.00000190  00000-0 -55628-3 0  9990
2 48044  87.8966 293.9458 0001773  82.3788 277.7542 13.13466820 33172
ONEWEB-0154             
1 48045U 21025D   21315.51302919  .00000536  00000-0  14318-2 0  9996
2 48045  87.8809 293.7535 0002026  69.3753 290.7593 13.13471725 33140
ONEWEB-0116             
1 48046U 21025E   21315.47940415  .00000363  00000-0  95881-3 0  9994
2 48046  87.8821 293.7615 0001927  96.6374 263.4974 13.13467809 33288
ONEWEB-0150             
1 48047U 21025F   21315.68106144 -.00000028  00000-0 -11182-3 0  9993
2 48047  87.8815 293.7458 0001695  75.2546 284.8770 13.13465647 33204
ONEWEB-0107             
1 48048U 21025G   21315.45477106  .00000157  00000-0  39380-3 0  9999
2 48048  87.8842 293.7714 0001811  64.5438 295.5878 13.13465610 33153
ONEWEB-0101             
1 48049U 21025H   21315.49509469 -.00000040  00000-0 -14371-3 0  9998
2 48049  87.8835 293.8261 0002100  77.1217 283.0147 13.13472718 33137
